{"format":"tle-catalog-v1","generatedAt":"2026-06-25T16:01:17.978Z","count":6895,"entries":[{"name":"ARIANE 40 R/B","line1":"1 21610U 91050F   26176.16210440  .00000253  00000+0  87947-4 0  9993","line2":"2 21610  98.1871 224.2683 0004443 104.1944 255.9741 14.42961215834497"},{"name":"ARIANE 40 R/B","line1":"1 22830U 93061H   26176.16579974  .00000150  00000+0  70553-4 0  9993","line2":"2 22830  98.4816 242.8571 0009978 331.7326  28.3316 14.32910749709492"},{"name":"COSMOS 2058","line1":"1 20465U 90010A   26175.61355572  .00002965  00000+0  17068-3 0  9998","line2":"2 20465  82.4692 302.0314 0008698 330.8426  29.2318 15.12059441958391"},{"name":"COSMOS 2084","line1":"1 20663U 90055A   26176.16147133  .00002000  00000+0  14967-3 0  9995","line2":"2 20663  62.7900 328.8723 0005958 292.7144  67.3327 15.06146520952501"},{"name":"COSMOS 2151","line1":"1 21422U 91042A   26176.19572824  .00001727  00000+0  13490-3 0  9993","line2":"2 21422  82.4964 339.9511 0013571  59.8875 300.3693 15.00458830879312"},{"name":"COSMOS 2219","line1":"1 22219U 92076A   26176.25468986  .00000339  00000+0  20246-3 0  9991","line2":"2 22219  71.0594 153.2063 0016995  30.5709 329.6400 14.14104908733580"},{"name":"COSMOS 2221","line1":"1 22236U 92080A   26176.02879974  .00001360  00000+0  11714-3 0  9998","line2":"2 22236  82.5030 176.2515 0013988 184.7628 175.3464 14.96551206796840"},{"name":"COSMOS 2228","line1":"1 22286U 92094A   26176.23914425  .00001951  00000+0  16432-3 0  9990","line2":"2 22286  82.5180 134.3303 0016237 303.3640  56.6028 14.97613131792158"},{"name":"COSMOS 2242","line1":"1 22626U 93024A   26176.06858072  .00001571  00000+0  13430-3 0  9991","line2":"2 22626  82.5181 164.0022 0014739 308.0563  51.9329 14.96924964796453"},{"name":"COSMOS 2278","line1":"1 23087U 94023A   26175.67279272 -.00000114  00000+0 -34777-4 0  9990","line2":"2 23087  71.0553 311.2630 0010504 234.8377 125.1763 14.14398627659935"},{"name":"ERS-1","line1":"1 21574U 91050A   26176.29719079  .00000264  00000+0  99056-4 0  9994","line2":"2 21574  98.7796 197.1935 0030821 241.9900 117.8168 14.39521495831211"},{"name":"HST","line1":"1 20580U 90037B   26175.96652655  .00007148  00000+0  22544-3 0  9998","line2":"2 20580  28.4728  27.4055 0001442 233.5980 126.4483 15.30829347789769"},{"name":"INTERCOSMOS 25","line1":"1 21819U 91086A   26176.20047177  .00000978  00000+0  19453-3 0  9993","line2":"2 21819  82.6043 244.9607 1483964 245.0898  98.9010 12.12209430509712"},{"name":"OKEAN-3","line1":"1 21397U 91039A   26176.24818143  .00002297  00000+0  15815-3 0  9999","line2":"2 21397  82.5160 232.5652 0013181 328.0395  32.0031 15.05361678881216"},{"name":"SL-14 R/B","line1":"1 20466U 90010B   26176.26101638  .00000385  00000+0  43744-4 0  9998","line2":"2 20466  82.5018 166.3622 0018506 308.3411  51.6140 14.83650988944433"},{"name":"SL-14 R/B","line1":"1 20511U 90018B   26176.24738741  .00000380  00000+0  44526-4 0  9990","line2":"2 20511  82.5216 122.5742 0017686  97.3684 262.9541 14.82221138938510"},{"name":"SL-14 R/B","line1":"1 21423U 91042B   26176.25561199  .00000343  00000+0  40306-4 0  9994","line2":"2 21423  82.4933 119.3296 0015502 245.5836 114.3761 14.81907077869000"},{"name":"SL-16 R/B","line1":"1 20625U 90046B   26176.14834248 -.00000171  00000+0 -63762-4 0  9998","line2":"2 20625  71.0001  72.2289 0012796 149.2427 210.9448 14.15026882863596"},{"name":"SL-16 R/B","line1":"1 22220U 92076B   26175.88512713  .00000035  00000+0  41531-4 0  9993","line2":"2 22220  71.0013 322.5641 0014921 288.5062 228.1797 14.16875721737019"},{"name":"SL-16 R/B","line1":"1 22285U 92093B   26176.22810474  .00000114  00000+0  82756-4 0  9999","line2":"2 22285  71.0203 138.5109 0003550 173.0001 187.1172 14.15460264728373"},{"name":"SL-16 R/B","line1":"1 22566U 93016B   26175.92629774 -.00000095  00000+0 -24540-4 0  9991","line2":"2 22566  71.0088 349.9515 0009668 172.6931 187.4335 14.15315903717346"},{"name":"SL-16 R/B","line1":"1 22803U 93059B   26176.25374965 -.00000027  00000+0  10553-4 0  9991","line2":"2 22803  70.9890 144.2926 0015559  40.5110 319.7169 14.17247110694771"},{"name":"SL-16 R/B","line1":"1 23088U 94023B   26176.23675204 -.00000050  00000+0 -10469-5 0  9991","line2":"2 23088  70.9987 205.0266 0002190 180.8679 179.2440 14.15027659661308"},{"name":"SL-16 R/B","line1":"1 23343U 94074B   26176.05888628  .00000367  00000+0  55664-4 0  9991","line2":"2 23343  97.6987 202.4519 0005496 221.7003 192.3993 14.79508242703126"},{"name":"SL-6 R/B(2)","line1":"1 20666U 90055D   26176.29367493  .00001328  00000+0  10856-3 0  9990","line2":"2 20666  62.7813 247.7908 0041975   6.2248 353.9364 15.04025742954375"},{"name":"SL-8 R/B","line1":"1 20775U 90078B   26175.97191222  .00028614  00000+0  80861-3 0  9995","line2":"2 20775  82.9015 154.6096 0348772  12.2174 348.7231 14.92674824825287"},{"name":"SL-8 R/B","line1":"1 21088U 91006B   26176.20849692  .00000052  00000+0  36794-4 0  9996","line2":"2 21088  82.9426  90.0668 0023849  93.3653  17.1297 13.77506592778875"},{"name":"SL-8 R/B","line1":"1 21876U 92008B   26176.12557259  .00000160  00000+0  14841-3 0  9998","line2":"2 21876  82.9259 187.8851 0034337 192.1414 233.4625 13.75979019724190"},{"name":"SL-8 R/B","line1":"1 21938U 92020B   26176.21344161  .00000058  00000+0  44633-4 0  9996","line2":"2 21938  82.9304  73.8959 0029158   0.5626 122.8418 13.75549701715917"},{"name":"USA 81","line1":"1 21949U 92023A   26176.23845714  .00000140  00000+0  44594-4 0  9991","line2":"2 21949  85.0072  69.3607 0002682  78.0125 282.1368 14.32400132110182"}]}