OBJECT_NAME,OBJECT_ID,EPOCH,MEAN_MOTION,ECCENTRICITY,INCLINATION,RA_OF_ASC_NODE,ARG_OF_PERICENTER,MEAN_ANOMALY,EPHEMERIS_TYPE,CLASSIFICATION_TYPE,NORAD_CAT_ID,ELEMENT_SET_NO,REV_AT_EPOCH,BSTAR,MEAN_MOTION_DOT,MEAN_MOTION_DDOT
COSMOS 2058,1990-010A,2026-06-24T14:43:31.214208,15.12059441,.00086981,82.4692,302.0314,330.8426,29.2318,0,U,20465,999,95839,.1706768E-3,.2965E-4,0
SL-14 R/B,1990-010B,2026-06-25T06:15:51.815232,14.83650988,.00185067,82.5018,166.3622,308.3411,51.6140,0,U,20466,999,94443,.43743578E-4,.385E-5,0
SL-14 R/B,1990-018B,2026-06-25T05:56:14.272224,14.82221138,.00176869,82.5216,122.5742,97.3684,262.9541,0,U,20511,999,93851,.44526396E-4,.38E-5,0
HST,1990-037B,2026-06-24T23:11:47.893920,15.30829347,.00014424,28.4728,27.4055,233.5980,126.4483,0,U,20580,999,78976,.22544253E-3,.7148E-4,0
SL-16 R/B,1990-046B,2026-06-25T03:33:36.790272,14.15026882,.00127962,71.0001,72.2289,149.2427,210.9448,0,U,20625,999,86359,-.63762083E-4,-.171E-5,0
COSMOS 2084,1990-055A,2026-06-25T03:52:31.122912,15.06146520,.00059585,62.7900,328.8723,292.7144,67.3327,0,U,20663,999,95250,.14966862E-3,.2E-4,0
SL-6 R/B(2),1990-055D,2026-06-25T07:02:53.513952,15.04025742,.00419758,62.7813,247.7908,6.2248,353.9364,0,U,20666,999,95437,.10855847E-3,.1328E-4,0
SL-8 R/B,1990-078B,2026-06-24T23:19:33.215808,14.92674824,.03487728,82.9015,154.6096,12.2174,348.7231,0,U,20775,999,82528,.80860501E-3,.28614E-3,0
SL-8 R/B,1991-006B,2026-06-25T05:00:14.133888,13.77506592,.00238491,82.9426,90.0668,93.3653,17.1297,0,U,21088,999,77887,.36794332E-4,.52E-6,0
OKEAN-3,1991-039A,2026-06-25T05:57:22.875552,15.05361678,.00131811,82.5160,232.5652,328.0395,32.0031,0,U,21397,999,88121,.15814769E-3,.2297E-4,0
COSMOS 2151,1991-042A,2026-06-25T04:41:50.919936,15.00458830,.00135717,82.4964,339.9511,59.8875,300.3693,0,U,21422,999,87931,.13489797E-3,.1727E-4,0
SL-14 R/B,1991-042B,2026-06-25T06:08:04.875936,14.81907077,.00155026,82.4933,119.3296,245.5836,114.3761,0,U,21423,999,86900,.40306143E-4,.343E-5,0
ERS-1,1991-050A,2026-06-25T07:07:57.284256,14.39521495,.00308219,98.7796,197.1935,241.9900,117.8168,0,U,21574,999,83121,.99056406E-4,.264E-5,0
ARIANE 40 R/B,1991-050F,2026-06-25T03:53:25.820160,14.42961215,.00044437,98.1871,224.2683,104.1944,255.9741,0,U,21610,999,83449,.87947014E-4,.253E-5,0
INTERCOSMOS 25,1991-086A,2026-06-25T04:48:40.760928,12.12209430,.14839643,82.6043,244.9607,245.0898,98.9010,0,U,21819,999,50971,.19452942E-3,.978E-5,0
SL-8 R/B,1992-008B,2026-06-25T03:00:49.471776,13.75979019,.00343377,82.9259,187.8851,192.1414,233.4625,0,U,21876,999,72419,.1484106E-3,.16E-5,0
SL-8 R/B,1992-020B,2026-06-25T05:07:21.355104,13.75549701,.00291584,82.9304,73.8959,0.5626,122.8418,0,U,21938,999,71591,.44633474E-4,.58E-6,0
USA 81,1992-023A,2026-06-25T05:43:22.696896,14.32400132,.00026825,85.0072,69.3607,78.0125,282.1368,0,U,21949,999,11018,.44593796E-4,.14E-5,0
COSMOS 2219,1992-076A,2026-06-25T06:06:45.203904,14.14104908,.0016995,71.0594,153.2063,30.5709,329.6400,0,U,22219,999,73358,.20246183E-3,.339E-5,0
SL-16 R/B,1992-076B,2026-06-24T21:14:34.984032,14.16875721,.00149217,71.0013,322.5641,288.5062,228.1797,0,U,22220,999,73701,.41531479E-4,.35E-6,0
COSMOS 2221,1992-080A,2026-06-25T00:41:28.297536,14.96551206,.00139886,82.5030,176.2515,184.7628,175.3464,0,U,22236,999,79684,.1171392E-3,.136E-4,0
SL-16 R/B,1992-093B,2026-06-25T05:28:28.249536,14.15460264,.00035505,71.0203,138.5109,173.0001,187.1172,0,U,22285,999,72837,.82756362E-4,.114E-5,0
COSMOS 2228,1992-094A,2026-06-25T05:44:22.063200,14.97613131,.00162377,82.5180,134.3303,303.3640,56.6028,0,U,22286,999,79215,.16431817E-3,.1951E-4,0
SL-16 R/B,1993-016B,2026-06-24T22:13:52.124736,14.15315903,.00096688,71.0088,349.9515,172.6931,187.4335,0,U,22566,999,71734,-.24540295E-4,-.95E-6,0
COSMOS 2242,1993-024A,2026-06-25T01:38:45.374208,14.96924964,.0014739,82.5181,164.0022,308.0563,51.9329,0,U,22626,999,79645,.13429991E-3,.1571E-4,0
SL-16 R/B,1993-059B,2026-06-25T06:05:23.969760,14.17247110,.00155599,70.9890,144.2926,40.5110,319.7169,0,U,22803,999,69477,.10553285E-4,-.27E-6,0
ARIANE 40 R/B,1993-061H,2026-06-25T03:58:45.097536,14.32910749,.00099783,98.4816,242.8571,331.7326,28.3316,0,U,22830,999,70949,.70552738E-4,.15E-5,0
COSMOS 2278,1994-023A,2026-06-24T16:08:49.291008,14.14398627,.0010504,71.0553,311.2630,234.8377,125.1763,0,U,23087,999,65993,-.34776778E-4,-.114E-5,0
SL-16 R/B,1994-023B,2026-06-25T05:40:55.376256,14.15027659,.00021901,70.9987,205.0266,180.8679,179.2440,0,U,23088,999,66130,-.104694E-5,-.5E-6,0
SL-16 R/B,1994-074B,2026-06-25T01:24:47.774592,14.79508242,.00054961,97.6987,202.4519,221.7003,192.3993,0,U,23343,999,70312,.55663686E-4,.367E-5,0
